{"type": "FeatureCollection", "features": [ {"type": "Feature", "properties": {"norad_id": 64902, "name": "CO3D 2", "group": "resource", "lat": -81.32310718395165, "lon": -165.8398977955228, "alt_km": 513.125498455739, "timestamp": "2025-12-22T20:43:45.500847+00:00", "meta": {"OBJECT_NAME": "CO3D 2", "OBJECT_ID": "2025-156D", "EPOCH": "2025-12-22T13:14:44.819232", "MEAN_MOTION": 15.20201445, "ECCENTRICITY": 8.17e-05, "INCLINATION": 97.4339, "RA_OF_ASC_NODE": 72.6774, "ARG_OF_PERICENTER": 67.9044, "MEAN_ANOMALY": 292.2278, "EPHEMERIS_TYPE": 0, "CLASSIFICATION_TYPE": "U", "NORAD_CAT_ID": 64902, "ELEMENT_SET_NO": 999, "REV_AT_EPOCH": 2269, "BSTAR": 0.00019395038, "MEAN_MOTION_DOT": 4.133e-05, "MEAN_MOTION_DDOT": 0}, "tle": {"line1": "1 64902U 25156D   25356.55190763  .00004133  00000+0  19395-3 0  9997", "line2": "2 64902  97.4339  72.6774 0000817  67.9044 292.2278 15.20201445 22692"}}, "geometry": {"type": "Point", "coordinates": [-165.8398977955228, -81.32310718395165]}}, {"type": "Feature", "properties": {"norad_id": 64903, "name": "CO3D 1", "group": "resource", "lat": -80.86487335100345, "lon": -161.30822597932652, "alt_km": 513.1754935094177, "timestamp": "2025-12-22T20:43:45.500857+00:00", "meta": {"OBJECT_NAME": "CO3D 1", "OBJECT_ID": "2025-156E", "EPOCH": "2025-12-22T13:14:58.155072", "MEAN_MOTION": 15.20200981, "ECCENTRICITY": 8.925e-05, "INCLINATION": 97.4341, "RA_OF_ASC_NODE": 72.6774, "ARG_OF_PERICENTER": 73.3042, "MEAN_ANOMALY": 286.8291, "EPHEMERIS_TYPE": 0, "CLASSIFICATION_TYPE": "U", "NORAD_CAT_ID": 64903, "ELEMENT_SET_NO": 999, "REV_AT_EPOCH": 2269, "BSTAR": 0.00061308173, "MEAN_MOTION_DOT": 0.00013227, "MEAN_MOTION_DDOT": 0}, "tle": {"line1": "1 64903U 25156E   25356.55206198  .00013227  00000+0  61308-3 0  9993", "line2": "2 64903  97.4341  72.6774 0000892  73.3042 286.8291 15.20200981 22696"}}, "geometry": {"type": "Point", "coordinates": [-161.30822597932652, -80.86487335100345]}}, {"type": "Feature", "properties": {"norad_id": 66514, "name": "SENTINEL-6B", "group": "resource", "lat": -4.1766120617095055, "lon": 139.53137364066484, "alt_km": 1337.9786180903675, "timestamp": "2025-12-22T20:43:45.500866+00:00", "meta": {"OBJECT_NAME": "SENTINEL-6B", "OBJECT_ID": "2025-264A", "EPOCH": "2025-12-12T06:01:21.427680", "MEAN_MOTION": 12.81479575, "ECCENTRICITY": 0.0007848, "INCLINATION": 66.0385, "RA_OF_ASC_NODE": 163.4531, "ARG_OF_PERICENTER": 270.1375, "MEAN_ANOMALY": 89.8741, "EPHEMERIS_TYPE": 0, "CLASSIFICATION_TYPE": "U", "NORAD_CAT_ID": 66514, "ELEMENT_SET_NO": 999, "REV_AT_EPOCH": 322, "BSTAR": 0.00018195, "MEAN_MOTION_DOT": -1.9e-07, "MEAN_MOTION_DDOT": 0}, "tle": {"line1": "1 66514U 25264A   25346.25094245 -.00000019  00000+0  18195-3 0  9999", "line2": "2 66514  66.0385 163.4531 0007848 270.1375  89.8741 12.81479575  3220"}}, "geometry": {"type": "Point", "coordinates": [139.53137364066484, -4.1766120617095055]}}]}